{
  "type": "FeatureCollection",
  "features": [
    {
      "type": "Feature",
      "properties": {
        "norad_id": 50032,
        "name": "COSMOS 1408 DEB",
        "group": "cosmos-1408-debris",
        "lat": -31.029208438464,
        "lon": -128.94365480968906,
        "alt_km": 427.32684896253977,
        "timestamp": "2025-12-24T09:46:31.274617+00:00",
        "meta_object_name": "COSMOS 1408 DEB",
        "meta_object_id": "1982-092RU",
        "meta_epoch": "2025-12-24T02:39:02.736576",
        "meta_mean_motion": 15.45803659,
        "meta_eccentricity": 0.0016397,
        "meta_inclination": 82.5629,
        "meta_ra_of_asc_node": 46.8537,
        "meta_arg_of_pericenter": 166.5773,
        "meta_mean_anomaly": 193.5915,
        "meta_ephemeris_type": 0,
        "meta_classification_type": "U",
        "meta_norad_cat_id": 50032,
        "meta_element_set_no": 999,
        "meta_rev_at_epoch": 22779,
        "meta_bstar": 0.00010877,
        "meta_mean_motion_dot": 5.336e-05,
        "meta_mean_motion_ddot": 0,
        "tle_line1": "1 50032U 82092RU  25358.11044834  .00005336  00000+0  10877-3 0  9991",
        "tle_line2": "2 50032  82.5629  46.8537 0016397 166.5773 193.5915 15.45803659227794"
      },
      "geometry": {
        "type": "Point",
        "coordinates": [
          -128.94365480968906,
          -31.029208438464
        ]
      }
    },
    {
      "type": "Feature",
      "properties": {
        "norad_id": 50058,
        "name": "COSMOS 1408 DEB",
        "group": "cosmos-1408-debris",
        "lat": 61.986352974969385,
        "lon": -136.99346522519318,
        "alt_km": 362.0752203392294,
        "timestamp": "2025-12-24T09:46:31.274638+00:00",
        "meta_object_name": "COSMOS 1408 DEB",
        "meta_object_id": "1982-092SW",
        "meta_epoch": "2025-12-24T03:08:20.815008",
        "meta_mean_motion": 15.64775502,
        "meta_eccentricity": 0.0015899,
        "meta_inclination": 82.6116,
        "meta_ra_of_asc_node": 57.4139,
        "meta_arg_of_pericenter": 60.5164,
        "meta_mean_anomaly": 299.7678,
        "meta_ephemeris_type": 0,
        "meta_classification_type": "U",
        "meta_norad_cat_id": 50058,
        "meta_element_set_no": 999,
        "meta_rev_at_epoch": 22982,
        "meta_bstar": 0.00031674,
        "meta_mean_motion_dot": 0.00031076,
        "meta_mean_motion_ddot": 0,
        "tle_line1": "1 50058U 82092SW  25358.13079647  .00031076  00000+0  31674-3 0  9999",
        "tle_line2": "2 50058  82.6116  57.4139 0015899  60.5164 299.7678 15.64775502229820"
      },
      "geometry": {
        "type": "Point",
        "coordinates": [
          -136.99346522519318,
          61.986352974969385
        ]
      }
    },
    {
      "type": "Feature",
      "properties": {
        "norad_id": 50404,
        "name": "COSMOS 1408 DEB",
        "group": "cosmos-1408-debris",
        "lat": -57.784796204763275,
        "lon": -169.48896436273432,
        "alt_km": 617.1863365044492,
        "timestamp": "2025-12-24T09:46:31.274652+00:00",
        "meta_object_name": "COSMOS 1408 DEB",
        "meta_object_id": "1982-092ADS",
        "meta_epoch": "2025-12-24T00:32:03.906816",
        "meta_mean_motion": 15.15534968,
        "meta_eccentricity": 0.0167278,
        "meta_inclination": 82.2021,
        "meta_ra_of_asc_node": 203.468,
        "meta_arg_of_pericenter": 160.1266,
        "meta_mean_anomaly": 200.6591,
        "meta_ephemeris_type": 0,
        "meta_classification_type": "U",
        "meta_norad_cat_id": 50404,
        "meta_element_set_no": 999,
        "meta_rev_at_epoch": 21364,
        "meta_bstar": 0.0031114,
        "meta_mean_motion_dot": 0.0008508,
        "meta_mean_motion_ddot": 0,
        "tle_line1": "1 50404U 82092ADS 25358.02226744  .00085080  00000+0  31114-2 0  9996",
        "tle_line2": "2 50404  82.2021 203.4680 0167278 160.1266 200.6591 15.15534968213642"
      },
      "geometry": {
        "type": "Point",
        "coordinates": [
          -169.48896436273432,
          -57.784796204763275
        ]
      }
    },
    {
      "type": "Feature",
      "properties": {
        "norad_id": 50621,
        "name": "COSMOS 1408 DEB",
        "group": "cosmos-1408-debris",
        "lat": 0.4967485970725975,
        "lon": -118.03573593767764,
        "alt_km": 391.60186406871617,
        "timestamp": "2025-12-24T09:46:31.274664+00:00",
        "meta_object_name": "COSMOS 1408 DEB",
        "meta_object_id": "1982-092ALR",
        "meta_epoch": "2025-12-23T14:30:12.364992",
        "meta_mean_motion": 15.57201045,
        "meta_eccentricity": 0.00290955,
        "meta_inclination": 82.5688,
        "meta_ra_of_asc_node": 62.8659,
        "meta_arg_of_pericenter": 113.3373,
        "meta_mean_anomaly": 247.0948,
        "meta_ephemeris_type": 0,
        "meta_classification_type": "U",
        "meta_norad_cat_id": 50621,
        "meta_element_set_no": 999,
        "meta_rev_at_epoch": 22419,
        "meta_bstar": 0.00035622213,
        "meta_mean_motion_dot": 0.00026487,
        "meta_mean_motion_ddot": 0,
        "tle_line1": "1 50621U 82092ALR 25357.60430978  .00026487  00000+0  35622-3 0  9991",
        "tle_line2": "2 50621  82.5688  62.8659 0029095 113.3373 247.0948 15.57201045224197"
      },
      "geometry": {
        "type": "Point",
        "coordinates": [
          -118.03573593767764,
          0.4967485970725975
        ]
      }
    }
  ]
}